STARLINK-2238           
1 48584U 21041AH  21159.91667824 -.00000248  00000-0  17147-5 0  9998
2 48584  53.0531   8.0852 0001465  83.4108 299.5477 15.02324913  1959
STARLINK-2240           
1 48585U 21041AJ  21160.50001157  .00037729  00000-0  28316-2 0  9997
2 48585  53.0511   5.3733 0001747 106.5287 191.2651 15.02296965  4099
STARLINK-2241           
1 48586U 21041AK  21160.50001157  .00037943  00000-0  28468-2 0  9994
2 48586  53.0527   5.4452 0001663 100.5094 198.3281 15.02305997  4096
STARLINK-2242           
1 48587U 21041AL  21160.25001157 -.00032214  00000-0 -24011-2 0  9995
2 48587  53.0519   6.4871 0001987  90.9793 300.7654 15.02343489  4058
STARLINK-2244           
1 48588U 21041AM  21160.50001157  .00039608  00000-0  91585-3 0  9997
2 48588  53.0517   2.1275 0001151  81.3286 203.7024 15.42127658  4181
STARLINK-2245           
1 48589U 21041AN  21160.50001157  .00040912  00000-0  94562-3 0  9996
2 48589  53.0529   2.1186 0001058  93.1521 193.1066 15.42124483  4186
STARLINK-2246           
1 48590U 21041AP  21160.50001157  .00037533  00000-0  28161-2 0  9994
2 48590  53.0508   5.4062 0002070  94.6731 203.6868 15.02309935  3985
STARLINK-2248           
1 48591U 21041AQ  21160.50001157  .00042934  00000-0  99165-3 0  9999
2 48591  53.0516   2.1413 0001138  87.4953 187.4094 15.42124137  4130
STARLINK-2249           
1 48592U 21041AR  21160.25001157 -.00033833  00000-0 -25222-2 0  9994
2 48592  53.0513   6.8475 0001879  63.2287 327.8278 15.02360852  3956
STARLINK-2250           
1 48593U 21041AS  21160.25001157 -.00033847  00000-0 -25239-2 0  9998
2 48593  53.0509   6.7729 0001887  62.9851 326.8872 15.02351716  3953
STARLINK-2251           
1 48594U 21041AT  21160.25001157 -.00084387  00000-0 -19481-2 0  9996
2 48594  53.0526   3.2916 0001319  72.8445 271.5902 15.42202750  4152
STARLINK-2252           
1 48595U 21041AU  21160.25001157 -.00037071  00000-0 -27694-2 0  9990
2 48595  53.0510   6.9726 0001209  83.4688 298.3353 15.02327087  4929
STARLINK-2253           
1 48596U 21041AV  21160.25001157 -.00039158  00000-0 -29264-2 0  9994
2 48596  53.0530   6.7354 0001750  89.0956 300.1858 15.02338247  4111
STARLINK-2255           
1 48597U 21041AW  21160.50001157  .00038139  00000-0  28619-2 0  9992
2 48597  53.0514   5.5521 0001876 102.1022 198.7848 15.02297580  4953
STARLINK-2256           
1 48598U 21041AX  21160.50001157  .00038072  00000-0  28555-2 0  9998
2 48598  53.0515   5.5154 0001752  96.6081 203.5984 15.02316896  4141
STARLINK-2274           
1 48599U 21041AY  21160.25001157 -.00094804  00000-0 -21923-2 0  9990
2 48599  53.0516   3.2960 0001239  81.6503 258.4003 15.42208594  4977
STARLINK-2275           
1 48600U 21041AZ  21160.50001157  .00025581  00000-0  59589-3 0  9995
2 48600  53.0528   2.1292 0001034  87.8875 195.8660 15.42129925  5011
STARLINK-2276           
1 48601U 21041BA  21159.91667824  .01224350  00000-0  42273-1 0  9994
2 48601  53.0522   7.3277 0001387  64.7068  50.3723 15.26626845  1965
STARLINK-2713           
1 48602U 21041BB  21160.25001157 -.00066980  00000-0 -15408-2 0  9990
2 48602  53.0497   3.2814 0001203  82.7546 262.8718 15.42202823  4979
STARLINK-2714           
1 48603U 21041BC  21160.25001157 -.00025553  00000-0 -57945-3 0  9995
2 48603  53.0468   3.2826 0001398  77.7406 267.4366 15.42168987  4977
STARLINK-2757           
1 48604U 21041BD  21160.50001157  .00037667  00000-0  28260-2 0  9998
2 48604  53.0532   5.7901 0002119  91.0532 202.2717 15.02309561  4969
CAPELLA-6               
1 48605U 21041BE  21160.12615899 -.00000027  00000-0  20355-4 0  9991
2 48605  53.0372   8.0820 0013670  37.4241 322.7694 14.96584753  3627
TYVAK-0130              
1 48606U 21041BF  21160.05420604  .00000280  00000-0  46699-4 0  9991
2 48606  53.0336   8.3397 0014919  19.0322 341.1217 14.96912961  3614
FALCON 9 DEB            
1 48607U 21041BG  21159.84594915  .00000050  00000-0  26640-4 0  9993
2 48607  53.0404   9.2075 0014112  20.1310 340.0229 14.97406502  3586
FALCON 9 DEB            
1 48608U 21041BH  21159.84983435  .00001291  00000-0  13272-3 0  9997
2 48608  53.0378   9.2198 0014099  22.7084 337.4521 14.97195710  3584
FALCON 9 DEB            
1 48609U 21041BJ  21160.04238470 -.00000001  00000-0  22195-4 0  9998
2 48609  53.0327   8.2733 0012381  16.5938 343.5450 14.97641192  3617
FALCON 9 DEB            
1 48610U 21041BK  21159.83712379  .00000031  00000-0  24771-4 0  9994
2 48610  53.0321   9.1282 0015208  10.4591 349.6708 14.97959834  3585
STARLINK-2758           
1 48638U 21044A   21160.50001157 -.01118242  00000-0 -83122-2 0  9998
2 48638  53.0522 356.6088 0001131 107.1578 357.4637 15.74800875  3080
STARLINK-2739           
1 48639U 21044B   21160.50001157 -.01118761  00000-0 -83148-2 0  9993
2 48639  53.0520 356.6075 0001120  85.2609  19.9858 15.74805664  3080
STARLINK-2736           
1 48640U 21044C   21160.50001157 -.01124513  00000-0 -83388-2 0  9993
2 48640  53.0520 356.6062 0001128  79.7652  25.9703 15.74870519  3023
STARLINK-2754           
1 48641U 21044D   21160.50001157 -.01118501  00000-0 -83126-2 0  9994
2 48641  53.0517 356.6044 0001208 116.2590 350.2608 15.74804897  3087
STARLINK-2646           
1 48642U 21044E   21160.50001157 -.01127506  00000-0 -83508-2 0  9994
2 48642  53.0517 356.6033 0001153 111.1450 355.7812 15.74905210  3026
STARLINK-2704           
1 48643U 21044F   21160.50001157 -.01139936  00000-0 -84091-2 0  9993
2 48643  53.0520 356.6032 0001169 110.9292 356.3429 15.75026002  3089
STARLINK-2695           
1 48644U 21044G   21160.16667824 -.01173749  00000-0 -83673-2 0  9990
2 48644  53.0516 358.2592 0000982  99.1190 277.1752 15.75883034  2973
STARLINK-2733           
1 48645U 21044H   21160.50001157 -.01143091  00000-0 -84244-2 0  9992
2 48645  53.0520 356.6005 0001143 105.2271   3.2439 15.75055344  3087
STARLINK-2732           
1 48646U 21044J   21160.16667824 -.01175590  00000-0 -83727-2 0  9998
2 48646  53.0518 358.2566 0000962  95.1471 282.3289 15.75908403  3033
STARLINK-2691           
1 48647U 21044K   21160.50001157 -.01146171  00000-0 -84393-2 0  9991
2 48647  53.0520 356.5980 0001143 104.3443   5.3272 15.75083726  3084
STARLINK-2521           
1 48648U 21044L   21160.16667824 -.01182178  00000-0 -84557-2 0  9992
2 48648  53.0522 358.2539 0000984  97.7224 281.3395 15.75827642  2972
STARLINK-2673           
1 48649U 21044M   21160.16667824 -.01182262  00000-0 -84146-2 0  9991
2 48649  53.0515 358.2527 0000971  90.5077 288.7759 15.75939322  2979
STARLINK-2672           
1 48650U 21044N   21160.50001157 -.01139807  00000-0 -84094-2 0  9991
2 48650  53.0519 356.5934 0001131  81.2710  30.4606 15.75022687  3025
STARLINK-2731           
1 48651U 21044P   21160.25001157 -.01181739  00000-0 -84771-2 0  9997
2 48651  53.0519 357.8353 0001144  91.9233  41.5302 15.75759585  2981
STARLINK-2727           
1 48652U 21044Q   21160.50001157 -.01143775  00000-0 -84281-2 0  9990
2 48652  53.0522 356.5910 0001134  99.4638  13.4452 15.75060679  3021
STARLINK-2720           
1 48653U 21044R   21160.50001157 -.01142404  00000-0 -84215-2 0  9996
2 48653  53.0520 356.5899 0001120  84.6310  28.9451 15.75048080  3026
STARLINK-2651           
1 48654U 21044S   21160.16667824 -.01178696  00000-0 -83859-2 0  9993
2 48654  53.0518 358.2461 0001190 230.3024 152.1607 15.75937477  3038
STARLINK-2657           
1 48655U 21044T   21160.16667824 -.01180992  00000-0 -83723-2 0  9996
2 48655  53.0518 358.2453 0000972  86.3188 296.4454 15.76025523  2972
STARLINK-2701           
1 48656U 21044U   21160.50001157 -.01143089  00000-0 -84251-2 0  9999
2 48656  53.0522 356.5857 0001134  96.7881  18.6823 15.75053505  3024
STARLINK-2734           
1 48657U 21044V   21160.50001157 -.01147663  00000-0 -84466-2 0  9990
2 48657  53.0519 356.5845 0001112  89.7359  26.2592 15.75097501  3084
STARLINK-2647           
1 48658U 21044W   21160.16667824 -.01181693  00000-0 -84018-2 0  9996
2 48658  53.0519 358.2409 0001079 122.4973 262.4272 15.75960327  3038
STARLINK-2717           
1 48659U 21044X   21160.16667824 -.01182346  00000-0 -83727-2 0  9999
2 48659  53.0520 358.2404 0000969  89.8063 295.3952 15.76053480  2975
STARLINK-2688           
1 48660U 21044Y   21160.16667824 -.01182875  00000-0 -84039-2 0  9995
2 48660  53.0517 358.2378 0001000  78.0321 308.0883 15.75980812  2979
STARLINK-2708           
1 48661U 21044Z   21160.50001157 -.00962187  00000-0 -59967-2 0  9998
2 48661  53.0517 356.4333 0001310 120.6932  67.1826 15.78768638  3083
STARLINK-2726           
1 48662U 21044AA  21160.50001157 -.00962066  00000-0 -59870-2 0  9998
2 48662  53.0522 356.4324 0001241 112.9069  75.8257 15.78801734  3021
STARLINK-2667           
1 48663U 21044AB  21160.50001157 -.00962114  00000-0 -59836-2 0  9995
2 48663  53.0521 356.4312 0001220 109.9605  79.3359 15.78815606  3022
STARLINK-2709           
1 48664U 21044AC  21160.50001157 -.00962255  00000-0 -59853-2 0  9991
2 48664  53.0519 356.4301 0001277 118.8938  70.6310 15.78812389  3080
STARLINK-2653           
1 48665U 21044AD  21160.50001157 -.00962154  00000-0 -59786-2 0  9995
2 48665  53.0518 356.4283 0001220 110.0203  80.3277 15.78834926  3087
STARLINK-2666           
1 48666U 21044AE  21160.50001157 -.00962217  00000-0 -59779-2 0  9998
2 48666  53.0520 356.4282 0001221 111.1139  79.4937 15.78839096  3086
STARLINK-2735           
1 48667U 21044AF  21160.50001157 -.00962069  00000-0 -59790-2 0  9997
2 48667  53.0513 356.4264 0001166  95.3212  95.6928 15.78831817  3029
STARLINK-2738           
1 48668U 21044AG  21160.50001157 -.00962210  00000-0 -59688-2 0  9992
2 48668  53.0511 356.4246 0001205 108.5101  83.3039 15.78872403  3085
STARLINK-2707           
1 48669U 21044AH  21160.50001157 -.00962243  00000-0 -59662-2 0  9991
2 48669  53.0512 356.4238 0001218 109.8169  82.4846 15.78882663  3029
